IRIDIUM 155             
1 43573U 18061E   25225.43192585 -.00000036  00000+0 -20004-4 0  9991
2 43573  86.4019 185.2700 0001954  91.6390 268.5030 14.34216830369242
IRIDIUM 154             
1 43574U 18061F   25225.41289948  .00000011  00000+0 -31333-5 0  9990
2 43574  86.4019 185.3958 0002288  86.3801 273.7657 14.34217478369295
IRIDIUM 163             
1 43575U 18061G   25225.60317699 -.00000055  00000+0 -26652-4 0  9993
2 43575  86.4020 185.2418 0002040  82.4951 277.6476 14.34217348369295
IRIDIUM 156             
1 43576U 18061H   25225.43826939  .00000000  00000+0 -71374-5 0  9998
2 43576  86.4020 185.3176 0002035  94.5556 265.5872 14.34217534369267
IRIDIUM 164             
1 43577U 18061J   25225.41924249  .00000038  00000+0  66496-5 0  9999
2 43577  86.4018 185.3606 0002470  88.5006 271.6473 14.34217790369303
IRIDIUM 159             
1 43578U 18061K   25225.59683433  .00000120  00000+0  35652-4 0  9997
2 43578  86.4017 185.2298 0002474  81.8931 278.2545 14.34217256369294
IRIDIUM 180             
1 43922U 19002A   25225.45679358  .00000259  00000+0  85365-4 0  9991
2 43922  86.3984 122.2683 0002140  81.4703 278.6735 14.34217505344881
IRIDIUM 176             
1 43923U 19002B   25225.46918214  .00000949  00000+0  14656-3 0  9990
2 43923  86.6110 122.2505 0001791  94.0529 266.0893 14.72245987353979
IRIDIUM 168             
1 43924U 19002C   25225.17137642 -.00000164  00000+0 -65665-4 0  9995
2 43924  86.3986 122.4556 0002056  82.9532 277.1898 14.34216644344829
IRIDIUM 173             
1 43925U 19002D   25225.43776456  .00000266  00000+0  87748-4 0  9994
2 43925  86.3982 122.2460 0001995  83.2289 276.9134 14.34216898344845
IRIDIUM 169             
1 43926U 19002E   25225.53751112  .00000303  00000+0  92565-4 0  9993
2 43926  86.4284 153.8007 0001060 106.9531 253.1783 14.38605972345998
IRIDIUM 172             
1 43927U 19002F   25225.15234481  .00000299  00000+0  99663-4 0  9997
2 43927  86.3990 122.3731 0002213  76.6120 283.5322 14.34217043344815
IRIDIUM 175             
1 43928U 19002G   25225.60017500  .00000756  00000+0  11594-3 0  9993
2 43928  86.1454  71.4262 0002590 106.9115 253.2386 14.72246658353989
IRIDIUM 171             
1 43929U 19002H   25225.41239458  .00000112  00000+0  32782-4 0  9990
2 43929  86.3991 122.5359 0002325  91.2295 268.9167 14.34217905344840
IRIDIUM 170             
1 43930U 19002J   25224.72771487  .00000769  00000+0  11803-3 0  9996
2 43930  86.6108 122.5646 0002362  88.7119 271.4369 14.72252104353879
IRIDIUM 167             
1 43931U 19002K   25225.19674640  .00000046  00000+0  93927-5 0  9999
2 43931  86.3984 122.3736 0002164  96.5522 263.5920 14.34217825344810
IRIDIUM 181             
1 56726U 23068S   25225.42262320  .00000353  00000+0  98835-4 0  9999
2 56726  86.4556 185.3439 0002880  90.5723 269.5808 14.43311521118046
IRIDIUM 177             
1 56727U 23068T   25225.39726523  .00001146  00000+0  14741-3 0  9990
2 56727  86.1971 114.9831 0002463  92.6193 267.5310 14.80224564120837
IRIDIUM 174             
1 56728U 23068U   25225.46300319  .00001084  00000+0  16802-3 0  9991
2 56728  86.6117 122.3735 0001991  77.2214 282.9226 14.72246706120749
IRIDIUM 178             
1 56729U 23068V   25225.52156474  .00001370  00000+0  17689-3 0  9992
2 56729  86.6602 153.9209 0002395  83.1723 276.9771 14.80239152120851
IRIDIUM 179             
1 56730U 23068W   25225.58379086  .00001332  00000+0  17197-3 0  9998
2 56730  86.6848 161.9369 0002349  90.5656 269.5834 14.80222433120860
